CCSDS_OMM_VERS = 2.0
CREATION_DATE  = 
ORIGINATOR     = 

OBJECT_NAME    = STARLINK-36332
OBJECT_ID      = 2026-034N
CENTER_NAME    = EARTH
REF_FRAME      = TEME
TIME_SYSTEM    = UTC
MEAN_ELEMENT_THEORY = SGP/SGP4

EPOCH          = 2026-03-20T05:12:33.931296
MEAN_MOTION    = 15.81038953
ECCENTRICITY   = .0001257
INCLINATION    = 53.1581
RA_OF_ASC_NODE = 158.4916
ARG_OF_PERICENTER = 131.6426
MEAN_ANOMALY   = 228.4704

EPHEMERIS_TYPE = 0
CLASSIFICATION_TYPE = U
NORAD_CAT_ID   = 67862
ELEMENT_SET_NO = 999
REV_AT_EPOCH   = 560
BSTAR          = .16015E-2
MEAN_MOTION_DOT = .330299E-2
MEAN_MOTION_DDOT = 0

CCSDS_OMM_VERS = 2.0
CREATION_DATE  = 
ORIGINATOR     = 

OBJECT_NAME    = STARLINK-36835
OBJECT_ID      = 2026-034P
CENTER_NAME    = EARTH
REF_FRAME      = TEME
TIME_SYSTEM    = UTC
MEAN_ELEMENT_THEORY = SGP/SGP4

EPOCH          = 2026-03-19T15:32:09.385440
MEAN_MOTION    = 15.80968618
ECCENTRICITY   = .00008338
INCLINATION    = 53.1608
RA_OF_ASC_NODE = 161.3383
ARG_OF_PERICENTER = 328.1356
MEAN_ANOMALY   = 31.9616

EPHEMERIS_TYPE = 0
CLASSIFICATION_TYPE = U
NORAD_CAT_ID   = 67863
ELEMENT_SET_NO = 999
REV_AT_EPOCH   = 551
BSTAR          = .95021695E-3
MEAN_MOTION_DOT = .191913E-2
MEAN_MOTION_DDOT = 0

CCSDS_OMM_VERS = 2.0
CREATION_DATE  = 
ORIGINATOR     = 

OBJECT_NAME    = STARLINK-36831
OBJECT_ID      = 2026-034Q
CENTER_NAME    = EARTH
REF_FRAME      = TEME
TIME_SYSTEM    = UTC
MEAN_ELEMENT_THEORY = SGP/SGP4

EPOCH          = 2026-03-19T15:31:04.587168
MEAN_MOTION    = 15.80969193
ECCENTRICITY   = .00005611
INCLINATION    = 53.1587
RA_OF_ASC_NODE = 161.3339
ARG_OF_PERICENTER = 332.8249
MEAN_ANOMALY   = 27.2744

EPHEMERIS_TYPE = 0
CLASSIFICATION_TYPE = U
NORAD_CAT_ID   = 67864
ELEMENT_SET_NO = 999
REV_AT_EPOCH   = 551
BSTAR          = .84619505E-3
MEAN_MOTION_DOT = .170404E-2
MEAN_MOTION_DDOT = 0

CCSDS_OMM_VERS = 2.0
CREATION_DATE  = 
ORIGINATOR     = 

OBJECT_NAME    = STARLINK-36738
OBJECT_ID      = 2026-034R
CENTER_NAME    = EARTH
REF_FRAME      = TEME
TIME_SYSTEM    = UTC
MEAN_ELEMENT_THEORY = SGP/SGP4

EPOCH          = 2026-03-19T15:29:59.690400
MEAN_MOTION    = 15.80993147
ECCENTRICITY   = .00011934
INCLINATION    = 53.1597
RA_OF_ASC_NODE = 161.3283
ARG_OF_PERICENTER = 325.8510
MEAN_ANOMALY   = 34.2436

EPHEMERIS_TYPE = 0
CLASSIFICATION_TYPE = U
NORAD_CAT_ID   = 67865
ELEMENT_SET_NO = 999
REV_AT_EPOCH   = 551
BSTAR          = .87788508E-3
MEAN_MOTION_DOT = .177146E-2
MEAN_MOTION_DDOT = 0

CCSDS_OMM_VERS = 2.0
CREATION_DATE  = 
ORIGINATOR     = 

OBJECT_NAME    = STARLINK-36780
OBJECT_ID      = 2026-034S
CENTER_NAME    = EARTH
REF_FRAME      = TEME
TIME_SYSTEM    = UTC
MEAN_ELEMENT_THEORY = SGP/SGP4

EPOCH          = 2026-03-19T15:28:54.964704
MEAN_MOTION    = 15.80979433
ECCENTRICITY   = .0000783
INCLINATION    = 53.1593
RA_OF_ASC_NODE = 161.3237
ARG_OF_PERICENTER = 332.5473
MEAN_ANOMALY   = 27.5508

EPHEMERIS_TYPE = 0
CLASSIFICATION_TYPE = U
NORAD_CAT_ID   = 67866
ELEMENT_SET_NO = 999
REV_AT_EPOCH   = 551
BSTAR          = .111E-2
MEAN_MOTION_DOT = .225293E-2
MEAN_MOTION_DDOT = 0

CCSDS_OMM_VERS = 2.0
CREATION_DATE  = 
ORIGINATOR     = 

OBJECT_NAME    = STARLINK-36761
OBJECT_ID      = 2026-034T
CENTER_NAME    = EARTH
REF_FRAME      = TEME
TIME_SYSTEM    = UTC
MEAN_ELEMENT_THEORY = SGP/SGP4

EPOCH          = 2026-03-19T15:27:50.235552
MEAN_MOTION    = 15.80966892
ECCENTRICITY   = .00007292
INCLINATION    = 53.1605
RA_OF_ASC_NODE = 161.3172
ARG_OF_PERICENTER = 353.5670
MEAN_ANOMALY   = 6.5344

EPHEMERIS_TYPE = 0
CLASSIFICATION_TYPE = U
NORAD_CAT_ID   = 67867
ELEMENT_SET_NO = 999
REV_AT_EPOCH   = 551
BSTAR          = .79848779E-3
MEAN_MOTION_DOT = .160554E-2
MEAN_MOTION_DDOT = 0

CCSDS_OMM_VERS = 2.0
CREATION_DATE  = 
ORIGINATOR     = 

OBJECT_NAME    = STARLINK-36762
OBJECT_ID      = 2026-034U
CENTER_NAME    = EARTH
REF_FRAME      = TEME
TIME_SYSTEM    = UTC
MEAN_ELEMENT_THEORY = SGP/SGP4

EPOCH          = 2026-03-20T05:06:04.860864
MEAN_MOTION    = 15.81103211
ECCENTRICITY   = .0001634
INCLINATION    = 53.1586
RA_OF_ASC_NODE = 158.4601
ARG_OF_PERICENTER = 140.5151
MEAN_ANOMALY   = 219.5991

EPHEMERIS_TYPE = 0
CLASSIFICATION_TYPE = U
NORAD_CAT_ID   = 67868
ELEMENT_SET_NO = 999
REV_AT_EPOCH   = 560
BSTAR          = .21699E-2
MEAN_MOTION_DOT = .455751E-2
MEAN_MOTION_DDOT = 0

CCSDS_OMM_VERS = 2.0
CREATION_DATE  = 
ORIGINATOR     = 

OBJECT_NAME    = STARLINK-36779
OBJECT_ID      = 2026-034V
CENTER_NAME    = EARTH
REF_FRAME      = TEME
TIME_SYSTEM    = UTC
MEAN_ELEMENT_THEORY = SGP/SGP4

EPOCH          = 2026-03-20T05:05:00.511008
MEAN_MOTION    = 15.81030852
ECCENTRICITY   = .0003046
INCLINATION    = 53.1585
RA_OF_ASC_NODE = 158.4560
ARG_OF_PERICENTER = 312.5938
MEAN_ANOMALY   = 47.4827

EPHEMERIS_TYPE = 0
CLASSIFICATION_TYPE = U
NORAD_CAT_ID   = 67869
ELEMENT_SET_NO = 999
REV_AT_EPOCH   = 560
BSTAR          = .12306E-2
MEAN_MOTION_DOT = .251233E-2
MEAN_MOTION_DDOT = 0

CCSDS_OMM_VERS = 2.0
CREATION_DATE  = 
ORIGINATOR     = 

OBJECT_NAME    = STARLINK-36770
OBJECT_ID      = 2026-034W
CENTER_NAME    = EARTH
REF_FRAME      = TEME
TIME_SYSTEM    = UTC
MEAN_ELEMENT_THEORY = SGP/SGP4

EPOCH          = 2026-03-19T15:23:31.334496
MEAN_MOTION    = 15.80954163
ECCENTRICITY   = .00012442
INCLINATION    = 53.1591
RA_OF_ASC_NODE = 161.2976
ARG_OF_PERICENTER = 84.6629
MEAN_ANOMALY   = 275.4536

EPHEMERIS_TYPE = 0
CLASSIFICATION_TYPE = U
NORAD_CAT_ID   = 67870
ELEMENT_SET_NO = 999
REV_AT_EPOCH   = 551
BSTAR          = .12627587E-2
MEAN_MOTION_DOT = .257049E-2
MEAN_MOTION_DDOT = 0

CCSDS_OMM_VERS = 2.0
CREATION_DATE  = 
ORIGINATOR     = 

OBJECT_NAME    = STARLINK-36769
OBJECT_ID      = 2026-034X
CENTER_NAME    = EARTH
REF_FRAME      = TEME
TIME_SYSTEM    = UTC
MEAN_ELEMENT_THEORY = SGP/SGP4

EPOCH          = 2026-03-19T12:22:31.707264
MEAN_MOTION    = 15.80916079
ECCENTRICITY   = .00018324
INCLINATION    = 53.1593
RA_OF_ASC_NODE = 161.9350
ARG_OF_PERICENTER = 90.9566
MEAN_ANOMALY   = 269.1667

EPHEMERIS_TYPE = 0
CLASSIFICATION_TYPE = U
NORAD_CAT_ID   = 67871
ELEMENT_SET_NO = 999
REV_AT_EPOCH   = 549
BSTAR          = .10335278E-2
MEAN_MOTION_DOT = .208707E-2
MEAN_MOTION_DDOT = 0

CCSDS_OMM_VERS = 2.0
CREATION_DATE  = 
ORIGINATOR     = 

OBJECT_NAME    = STARLINK-36786
OBJECT_ID      = 2026-034Y
CENTER_NAME    = EARTH
REF_FRAME      = TEME
TIME_SYSTEM    = UTC
MEAN_ELEMENT_THEORY = SGP/SGP4

EPOCH          = 2026-03-19T15:22:26.110272
MEAN_MOTION    = 15.80986973
ECCENTRICITY   = .00007859
INCLINATION    = 53.1595
RA_OF_ASC_NODE = 161.2919
ARG_OF_PERICENTER = 341.9007
MEAN_ANOMALY   = 18.1987

EPHEMERIS_TYPE = 0
CLASSIFICATION_TYPE = U
NORAD_CAT_ID   = 67872
ELEMENT_SET_NO = 999
REV_AT_EPOCH   = 551
BSTAR          = .14623995E-2
MEAN_MOTION_DOT = .299752E-2
MEAN_MOTION_DDOT = 0

CCSDS_OMM_VERS = 2.0
CREATION_DATE  = 
ORIGINATOR     = 

OBJECT_NAME    = STARLINK-36783
OBJECT_ID      = 2026-034Z
CENTER_NAME    = EARTH
REF_FRAME      = TEME
TIME_SYSTEM    = UTC
MEAN_ELEMENT_THEORY = SGP/SGP4

EPOCH          = 2026-03-19T12:19:17.250240
MEAN_MOTION    = 15.80940470
ECCENTRICITY   = .00010807
INCLINATION    = 53.1590
RA_OF_ASC_NODE = 161.9193
ARG_OF_PERICENTER = 78.4065
MEAN_ANOMALY   = 281.7079

EPHEMERIS_TYPE = 0
CLASSIFICATION_TYPE = U
NORAD_CAT_ID   = 67873
ELEMENT_SET_NO = 999
REV_AT_EPOCH   = 549
BSTAR          = .10354218E-2
MEAN_MOTION_DOT = .209339E-2
MEAN_MOTION_DDOT = 0

